AETHER-4                
1 67375U 26004N   26040.93452963  .00003017  00000+0  33479-3 0  9992
2 67375  97.8019  41.6192 0005159 166.3643 193.7714 14.87969254  4377
AETHER-5                
1 67376U 26004P   26040.93749113  .00003517  00000+0  39077-3 0  9994
2 67376  97.8016  41.6141 0005483 172.0506 188.0798 14.87812644  4370
AETHER-6                
1 67377U 26004Q   26040.93419601  .00003224  00000+0  35720-3 0  9997
2 67377  97.8019  41.6191 0005150 165.1222 195.0147 14.87988317  4364
AETHER-7                
1 67378U 26004R   26040.93891431  .00002983  00000+0  33293-3 0  9997
2 67378  97.7989  41.6042 0004805 179.4647 180.6575 14.87742234  4361
AETHER-8                
1 67379U 26004S   26040.93870734  .00003214  00000+0  35822-3 0  9999
2 67379  97.7995  41.6066 0005332 176.9700 183.1549 14.87751684  4361
AETHER-9                
1 67380U 26004T   26040.93686463  .00003010  00000+0  33497-3 0  9995
2 67380  97.7985  41.6067 0004871 175.3962 184.7300 14.87851490  4361
AETHER-10               
1 67381U 26004U   26041.20304822  .00003814  00000+0  42113-3 0  9990
2 67381  97.8021  41.8862 0005332 165.7547 194.3821 14.88015466  4400
AETHER-11               
1 67382U 26004V   26040.93304073  .00002924  00000+0  32417-3 0  9995
2 67382  97.8014  41.6195 0004873 162.7086 197.4297 14.88039374  4364
AETHER-12               
1 67383U 26004W   26040.93840977  .00003298  00000+0  36720-3 0  9990
2 67383  97.7990  41.6059 0005174 177.6887 182.4354 14.87769613  4368
TWILIGHT-1 OBJECT X     
1 67384U 26004X   26040.86289956  .00006525  00000+0  71269-3 0  9990
2 67384  97.7987  41.5504 0004297 164.8999 195.2347 14.88213797  4357
TWILIGHT-1 OBJECT Y     
1 67385U 26004Y   26040.99501083  .00006148  00000+0  66751-3 0  9994
2 67385  97.7999  41.6887 0004403 156.7168 203.4249 14.88476633  4378
TWILIGHT-1 OBJECT Z     
1 67386U 26004Z   26040.99397974  .00003278  00000+0  35975-3 0  9992
2 67386  97.7980  41.6859 0003102 155.5614 204.5750 14.88372575  4375
