CCSDS_OMM_VERS = 2.0
CREATION_DATE  = 
ORIGINATOR     = 

OBJECT_NAME    = AETHER-4
OBJECT_ID      = 2026-004N
CENTER_NAME    = EARTH
REF_FRAME      = TEME
TIME_SYSTEM    = UTC
MEAN_ELEMENT_THEORY = SGP/SGP4

EPOCH          = 2026-02-09T22:25:43.360032
MEAN_MOTION    = 14.87969254
ECCENTRICITY   = .0005159
INCLINATION    = 97.8019
RA_OF_ASC_NODE = 41.6192
ARG_OF_PERICENTER = 166.3643
MEAN_ANOMALY   = 193.7714

EPHEMERIS_TYPE = 0
CLASSIFICATION_TYPE = U
NORAD_CAT_ID   = 67375
ELEMENT_SET_NO = 999
REV_AT_EPOCH   = 437
BSTAR          = .33479E-3
MEAN_MOTION_DOT = .3017E-4
MEAN_MOTION_DDOT = 0

CCSDS_OMM_VERS = 2.0
CREATION_DATE  = 
ORIGINATOR     = 

OBJECT_NAME    = AETHER-5
OBJECT_ID      = 2026-004P
CENTER_NAME    = EARTH
REF_FRAME      = TEME
TIME_SYSTEM    = UTC
MEAN_ELEMENT_THEORY = SGP/SGP4

EPOCH          = 2026-02-09T22:29:59.233632
MEAN_MOTION    = 14.87812644
ECCENTRICITY   = .0005483
INCLINATION    = 97.8016
RA_OF_ASC_NODE = 41.6141
ARG_OF_PERICENTER = 172.0506
MEAN_ANOMALY   = 188.0798

EPHEMERIS_TYPE = 0
CLASSIFICATION_TYPE = U
NORAD_CAT_ID   = 67376
ELEMENT_SET_NO = 999
REV_AT_EPOCH   = 437
BSTAR          = .39077E-3
MEAN_MOTION_DOT = .3517E-4
MEAN_MOTION_DDOT = 0

CCSDS_OMM_VERS = 2.0
CREATION_DATE  = 
ORIGINATOR     = 

OBJECT_NAME    = AETHER-6
OBJECT_ID      = 2026-004Q
CENTER_NAME    = EARTH
REF_FRAME      = TEME
TIME_SYSTEM    = UTC
MEAN_ELEMENT_THEORY = SGP/SGP4

EPOCH          = 2026-02-09T22:25:14.535264
MEAN_MOTION    = 14.87988317
ECCENTRICITY   = .000515
INCLINATION    = 97.8019
RA_OF_ASC_NODE = 41.6191
ARG_OF_PERICENTER = 165.1222
MEAN_ANOMALY   = 195.0147

EPHEMERIS_TYPE = 0
CLASSIFICATION_TYPE = U
NORAD_CAT_ID   = 67377
ELEMENT_SET_NO = 999
REV_AT_EPOCH   = 436
BSTAR          = .3572E-3
MEAN_MOTION_DOT = .3224E-4
MEAN_MOTION_DDOT = 0

CCSDS_OMM_VERS = 2.0
CREATION_DATE  = 
ORIGINATOR     = 

OBJECT_NAME    = AETHER-7
OBJECT_ID      = 2026-004R
CENTER_NAME    = EARTH
REF_FRAME      = TEME
TIME_SYSTEM    = UTC
MEAN_ELEMENT_THEORY = SGP/SGP4

EPOCH          = 2026-02-09T22:32:02.196384
MEAN_MOTION    = 14.87742234
ECCENTRICITY   = .0004805
INCLINATION    = 97.7989
RA_OF_ASC_NODE = 41.6042
ARG_OF_PERICENTER = 179.4647
MEAN_ANOMALY   = 180.6575

EPHEMERIS_TYPE = 0
CLASSIFICATION_TYPE = U
NORAD_CAT_ID   = 67378
ELEMENT_SET_NO = 999
REV_AT_EPOCH   = 436
BSTAR          = .33293E-3
MEAN_MOTION_DOT = .2983E-4
MEAN_MOTION_DDOT = 0

CCSDS_OMM_VERS = 2.0
CREATION_DATE  = 
ORIGINATOR     = 

OBJECT_NAME    = AETHER-8
OBJECT_ID      = 2026-004S
CENTER_NAME    = EARTH
REF_FRAME      = TEME
TIME_SYSTEM    = UTC
MEAN_ELEMENT_THEORY = SGP/SGP4

EPOCH          = 2026-02-09T22:31:44.314176
MEAN_MOTION    = 14.87751684
ECCENTRICITY   = .0005332
INCLINATION    = 97.7995
RA_OF_ASC_NODE = 41.6066
ARG_OF_PERICENTER = 176.9700
MEAN_ANOMALY   = 183.1549

EPHEMERIS_TYPE = 0
CLASSIFICATION_TYPE = U
NORAD_CAT_ID   = 67379
ELEMENT_SET_NO = 999
REV_AT_EPOCH   = 436
BSTAR          = .35822E-3
MEAN_MOTION_DOT = .3214E-4
MEAN_MOTION_DDOT = 0

CCSDS_OMM_VERS = 2.0
CREATION_DATE  = 
ORIGINATOR     = 

OBJECT_NAME    = AETHER-9
OBJECT_ID      = 2026-004T
CENTER_NAME    = EARTH
REF_FRAME      = TEME
TIME_SYSTEM    = UTC
MEAN_ELEMENT_THEORY = SGP/SGP4

EPOCH          = 2026-02-09T22:29:05.104032
MEAN_MOTION    = 14.87851490
ECCENTRICITY   = .0004871
INCLINATION    = 97.7985
RA_OF_ASC_NODE = 41.6067
ARG_OF_PERICENTER = 175.3962
MEAN_ANOMALY   = 184.7300

EPHEMERIS_TYPE = 0
CLASSIFICATION_TYPE = U
NORAD_CAT_ID   = 67380
ELEMENT_SET_NO = 999
REV_AT_EPOCH   = 436
BSTAR          = .33497E-3
MEAN_MOTION_DOT = .301E-4
MEAN_MOTION_DDOT = 0

CCSDS_OMM_VERS = 2.0
CREATION_DATE  = 
ORIGINATOR     = 

OBJECT_NAME    = AETHER-10
OBJECT_ID      = 2026-004U
CENTER_NAME    = EARTH
REF_FRAME      = TEME
TIME_SYSTEM    = UTC
MEAN_ELEMENT_THEORY = SGP/SGP4

EPOCH          = 2026-02-10T04:52:23.366208
MEAN_MOTION    = 14.88015466
ECCENTRICITY   = .0005332
INCLINATION    = 97.8021
RA_OF_ASC_NODE = 41.8862
ARG_OF_PERICENTER = 165.7547
MEAN_ANOMALY   = 194.3821

EPHEMERIS_TYPE = 0
CLASSIFICATION_TYPE = U
NORAD_CAT_ID   = 67381
ELEMENT_SET_NO = 999
REV_AT_EPOCH   = 440
BSTAR          = .42112836E-3
MEAN_MOTION_DOT = .3814E-4
MEAN_MOTION_DDOT = 0

CCSDS_OMM_VERS = 2.0
CREATION_DATE  = 
ORIGINATOR     = 

OBJECT_NAME    = AETHER-11
OBJECT_ID      = 2026-004V
CENTER_NAME    = EARTH
REF_FRAME      = TEME
TIME_SYSTEM    = UTC
MEAN_ELEMENT_THEORY = SGP/SGP4

EPOCH          = 2026-02-09T22:23:34.719072
MEAN_MOTION    = 14.88039374
ECCENTRICITY   = .0004873
INCLINATION    = 97.8014
RA_OF_ASC_NODE = 41.6195
ARG_OF_PERICENTER = 162.7086
MEAN_ANOMALY   = 197.4297

EPHEMERIS_TYPE = 0
CLASSIFICATION_TYPE = U
NORAD_CAT_ID   = 67382
ELEMENT_SET_NO = 999
REV_AT_EPOCH   = 436
BSTAR          = .32417E-3
MEAN_MOTION_DOT = .2924E-4
MEAN_MOTION_DDOT = 0

CCSDS_OMM_VERS = 2.0
CREATION_DATE  = 
ORIGINATOR     = 

OBJECT_NAME    = AETHER-12
OBJECT_ID      = 2026-004W
CENTER_NAME    = EARTH
REF_FRAME      = TEME
TIME_SYSTEM    = UTC
MEAN_ELEMENT_THEORY = SGP/SGP4

EPOCH          = 2026-02-09T22:31:18.604128
MEAN_MOTION    = 14.87769613
ECCENTRICITY   = .0005174
INCLINATION    = 97.7990
RA_OF_ASC_NODE = 41.6059
ARG_OF_PERICENTER = 177.6887
MEAN_ANOMALY   = 182.4354

EPHEMERIS_TYPE = 0
CLASSIFICATION_TYPE = U
NORAD_CAT_ID   = 67383
ELEMENT_SET_NO = 999
REV_AT_EPOCH   = 436
BSTAR          = .3672E-3
MEAN_MOTION_DOT = .3298E-4
MEAN_MOTION_DDOT = 0

CCSDS_OMM_VERS = 2.0
CREATION_DATE  = 
ORIGINATOR     = 

OBJECT_NAME    = TWILIGHT-1 OBJECT X
OBJECT_ID      = 2026-004X
CENTER_NAME    = EARTH
REF_FRAME      = TEME
TIME_SYSTEM    = UTC
MEAN_ELEMENT_THEORY = SGP/SGP4

EPOCH          = 2026-02-09T20:42:34.521984
MEAN_MOTION    = 14.88213797
ECCENTRICITY   = .0004297
INCLINATION    = 97.7987
RA_OF_ASC_NODE = 41.5504
ARG_OF_PERICENTER = 164.8999
MEAN_ANOMALY   = 195.2347

EPHEMERIS_TYPE = 0
CLASSIFICATION_TYPE = U
NORAD_CAT_ID   = 67384
ELEMENT_SET_NO = 999
REV_AT_EPOCH   = 435
BSTAR          = .71269E-3
MEAN_MOTION_DOT = .6525E-4
MEAN_MOTION_DDOT = 0

CCSDS_OMM_VERS = 2.0
CREATION_DATE  = 
ORIGINATOR     = 

OBJECT_NAME    = TWILIGHT-1 OBJECT Y
OBJECT_ID      = 2026-004Y
CENTER_NAME    = EARTH
REF_FRAME      = TEME
TIME_SYSTEM    = UTC
MEAN_ELEMENT_THEORY = SGP/SGP4

EPOCH          = 2026-02-09T23:52:48.935712
MEAN_MOTION    = 14.88476633
ECCENTRICITY   = .0004403
INCLINATION    = 97.7999
RA_OF_ASC_NODE = 41.6887
ARG_OF_PERICENTER = 156.7168
MEAN_ANOMALY   = 203.4249

EPHEMERIS_TYPE = 0
CLASSIFICATION_TYPE = U
NORAD_CAT_ID   = 67385
ELEMENT_SET_NO = 999
REV_AT_EPOCH   = 437
BSTAR          = .66751E-3
MEAN_MOTION_DOT = .6148E-4
MEAN_MOTION_DDOT = 0

CCSDS_OMM_VERS = 2.0
CREATION_DATE  = 
ORIGINATOR     = 

OBJECT_NAME    = TWILIGHT-1 OBJECT Z
OBJECT_ID      = 2026-004Z
CENTER_NAME    = EARTH
REF_FRAME      = TEME
TIME_SYSTEM    = UTC
MEAN_ELEMENT_THEORY = SGP/SGP4

EPOCH          = 2026-02-09T23:51:19.849536
MEAN_MOTION    = 14.88372575
ECCENTRICITY   = .00031021
INCLINATION    = 97.7980
RA_OF_ASC_NODE = 41.6859
ARG_OF_PERICENTER = 155.5614
MEAN_ANOMALY   = 204.5750

EPHEMERIS_TYPE = 0
CLASSIFICATION_TYPE = U
NORAD_CAT_ID   = 67386
ELEMENT_SET_NO = 999
REV_AT_EPOCH   = 437
BSTAR          = .35975313E-3
MEAN_MOTION_DOT = .3278E-4
MEAN_MOTION_DDOT = 0

